,Rec_Nbr,Unnamed: 0,address,lat_dir,latitude,lng_dir,longitude,phone,principal,school,type
0,0,0.0,"5536 NW 21ST AVENUE MIAMI, FL 33142",25.825129N,25.825129,80.230688W,-80.230688, (305)633-0308,CISELY J. SCOTT,AGENORIA S. PASCHAL/OLINDA ES,e
1,1,1.0,"5987 E 7 AVENUE HIALEAH, FL 33013",25.878578N,25.878578,80.269061W,-80.269061, (305)688-9619,LISA K. WIGGINS,AMELIA EARHART ES,e
2,2,2.0,"702 NE 137 STREET NORTH MIAMI, FL 33161",25.901334N,25.901334,80.182917W,-80.182917, (305)892-4000,DR. MARIE A. BAZILE,ARCH CREEK ELEMENTARY SCHOOL,e
3,3,3.0,"1037 NW 81ST STREET MIAMI, FL 33150",25.848748N,25.848748,80.214213W,-80.214213, (305)836-2820,DR. CYNTHIA L. HANNAH,ARCOLA LAKE ES,e
4,4,4.0,"3255 SW 6TH STREET MIAMI, FL 33135",25.766686N,25.766686,80.248073W,-80.248073, (305)445-3587,ANIA MARTI,AUBURNDALE ES,e
5,5,5.0,"16969 SW 294TH STREET MIAMI, FL 33030",25.493707N,25.493707,80.466208W,-80.466208, (305)247-4942,JACQUA J. LITTLE,AVOCADO ES,e
6,6,6.0,"3060 SW 85 AVENUE MIAMI, FL 33155",25.741073N,25.741073,80.333176W,-80.333176, (305)221-4011,CHERI A. DAVIS,BANYAN ES,e
7,7,7.0,"19010 NW 37TH AVENUE MIAMI GARDENS, FL 33056",25.946228N,25.946228,80.261657W,-80.261657, (305)624-2615,RHONDA Y. WILLIAMS,BARBARA HAWKINS ES,e
8,8,8.0,"10205 SW 194TH STREET CUTLER BAY, FL 33157",25.587428N,25.587428,80.355941W,-80.355941, (305)233-5401,PRUDENCE M. HILL,BEL-AIRE ES,e
9,9,9.0,"5700 W 24 AVENUE HIALEAH, FL 33016",25.874396N,25.874396,80.331227W,-80.331227, (305)556-2204,DR. EDUARDO J. TAGLE,BEN SHEPPARD ES,e
10,10,10.0,"4861 SW 140TH AVENUE MIAMI, FL 33175",25.721384N,25.721384,80.421028W,-80.421028, (305)221-0461,EMILY D. FALCON,BENT TREE ES,e
11,11,11.0,"800 77TH STREET MIAMI BEACH, FL 33141",25.862013N,25.862013,80.126702W,-80.12670200000001, (305)868-7727,KAREN D. VILLALBA-BELUSIC,BISCAYNE ES,e
12,12,12.0,"560 NW 151ST STREET MIAMI, FL 33169",25.913144N,25.913144,80.208732W,-80.208732, (305)681-5721,DEBORAH G. RIERA,BISCAYNE GARDENS ES,e
13,13,13.0,"9250 SW 52ND TERRACE MIAMI, FL 33165",25.71952N,25.719520000000003,80.344269W,-80.344269, (305)271-7411,ADRIAN M. SANCHEZ,BLUE LAKES ELEMENTARY,e
14,14,14.0,"3101 NW 191 STREET MIAMI GARDENS, FL 33056",25.947932N,25.947932,80.252656W,-80.252656, (305)624-2657,TAMIKA R. ROBINSON,BRENTWOOD ES,e
15,15,15.0,"3401 NW 83RD STREET MIAMI, FL 33147",25.849382N,25.849382000000002,80.253107W,-80.253107, (305)691-0861,DR. OMAR RIAZ,BROADMOOR ES,e
16,16,16.0,"16001 BUNCHE PARK DRIVE MIAMI GARDENS, FL 33054",25.920577N,25.920576999999998,80.239712W,-80.239712, (305)621-1469,JACQUELINE N. LEWIS,BUNCHE PARK ES,e
17,17,17.0,"9580 WEST CALUSA CLUB DRIVE MIAMI, FL 33186",25.678895N,25.678895,80.410452W,-80.410452, (305)385-0589,SUZET M. HERNANDEZ,CALUSA ES,e
18,18,18.0,"4375 NW 173RD DRIVE MIAMI GARDENS, FL 33055",25.932504N,25.932504,80.270761W,-80.270761, (305)621-0509,DR. THALYA WATKINS,CAROL CITY ES,e
19,19,19.0,"1550 NORTH MIAMI AVENUE MIAMI, FL 33136",25.789939N,25.789939,80.194686W,-80.194686, (305)329-3057,AMY O. CHRISTOPOULOS,CHAPMAN PARTNERSHIP EARLY CHILDHOOD CENTER NORTH,e
20,20,20.0,"28205 SW 124 COURT HOMESTEAD, FL 33033",25.51846N,25.51846,80.393117W,-80.393117, (305)416-7189,AMY O. CHRISTOPOULOS,CHAPMAN PARTNERSHIP EARLY CHILDHOOD CENTER SOUTH,e
21,21,21.0,"5241 NW 195 DRIVE MIAMI, FL 33055",25.94914N,25.94914,80.28766W,-80.28766, (305)628-5776,DR. BARBARA L. JOHNSON,"CHARLES DAVID WYCHE, JR. ES",e
22,22,22.0,"8400 NW 7 STREET MIAMI, FL 33126",25.776663N,25.776663,80.332926W,-80.332926, (305)261-3719,REANDRA T. JORDAN,CHARLES R. HADLEY  ES,e
23,23,23.0,"16251 SW 99 STREET MIAMI, FL 33196",25.673799N,25.673799,80.459003W,-80.45900300000001, (305)383-9392,LIDIA M. GONZALEZ,CHRISTINA M. EVE ES,e
24,24,24.0,"2121 NW 5TH STREET MIAMI, FL 33125",25.777977N,25.777977,80.230018W,-80.230018, (305)642-4141,JENNIFER D. SAVIGNE,CITRUS GROVE ES,e
25,25,25.0,"14550 SW 96TH STREET MIAMI, FL 33186",25.677091N,25.677091,80.429525W,-80.429525, (305)386-5244,DR. ANNETTE M. DIAZ,CLAUDE PEPPER ES,e
26,26,26.0,"3351 MATILDA STREET MIAMI, FL 33133",25.729096N,25.729096,80.243527W,-80.243527, (305)445-7876,JULISSA PINA,COCONUT GROVE ES,e
27,27,27.0,"10755 SW 160TH STREET MIAMI, FL 33157",25.620577N,25.620576999999997,80.366985W,-80.366985, (305)238-2392,LAURA F. TENNANT,COLONIAL DRIVE ES,e
28,28,28.0,"2420 NW 18TH AVENUE MIAMI, FL 33142",25.799533N,25.799533,80.225545W,-80.225545, (305)635-7341,DR. ORNA L. CAMPBELL DUMEUS,COMSTOCK ES,e
29,29,29.0,"1225 SW 97TH AVENUE MIAMI, FL 33174",25.757394N,25.757394,80.352082W,-80.352082, (305)221-5632,DR. AILEEN VEGA,CORAL PARK ES,e
30,30,30.0,"7955 SW 152 STREET PALMETTO BAY, FL 33157",25.629394N,25.629394,80.322485W,-80.322485, (305)235-1464,CHRISTINA L. GUERRA,CORAL REEF ES,e
31,31,31.0,"6801 SW 24TH STREET MIAMI, FL 33155",25.748079N,25.748079,80.305694W,-80.30569399999999, (305)262-8300,EVA N. RAVELO,CORAL TERRACE ES,e
32,32,32.0,"2201 NW 187TH STREET MIAMI GARDENS, FL 33056",25.944844N,25.944844,80.23855W,-80.23855, (305)624-1495,MARIA V. KERR,CRESTVIEW ES,e
33,33,33.0,"20210 CORAL SEA ROAD CUTLER BAY, FL 33189",25.579977N,25.579977,80.353478W,-80.35347800000001, (305)235-4611,ADRIENNE L. WRIGHT-MULLINGS,CUTLER RIDGE ES,e
34,34,34.0,"15625 SW 80 STREET MIAMI, FL 33193",25.692537N,25.692536999999998,80.445241W,-80.44524100000001, (305)380-1901,MARGARET D. LEITNER,DANTE B. FASCELL ES,e
35,35,35.0,"5757 SW 45TH STREET MIAMI, FL 33155",25.729354N,25.729354,80.287561W,-80.287561, (305)665-5483,LUCY AMENGUAL,DAVID FAIRCHILD ES,e
36,36,36.0,"851 SW 117TH AVENUE MIAMI, FL 33184",25.758986N,25.758986,80.382805W,-80.382805, (305)552-7122,MARIE H. ORTH-SANCHEZ,DR. CARLOS J. FINLAY ES,e
37,37,37.0,"21545 SW 87 AVENUE CUTLER BAY, FL 33189",25.565404N,25.565404,80.331489W,-80.331489, (305)234-4840,KATHRYN B. GUERRA,DR. EDWARD L. WHIGHAM ES,e
38,38,38.0,"4555 NW 206TH TERRACE MIAMI GARDENS, FL 33055",25.961225N,25.961225,80.277489W,-80.277489, (305)621-5838,DR. LINDA C. WHYE,DR. FREDERICA S. WILSON / SKYWAY ES,e
39,39,39.0,"15851 SW 112 STREET MIAMI, FL 33196",25.664338N,25.664338,80.452585W,-80.452585, (305)382-0792,RAUL J. GUTIERREZ,DR. GILBERT L. PORTER ES,e
40,40,40.0,"8851 SW 168TH STREET PALMETTO BAY, FL 33157",25.614293N,25.614293,80.335843W,-80.33584300000001, (305)235-2442,CARLA D. RIVAS,DR. HENRY E. PERRINE ACADEMY OF THE ARTS,e
41,41,41.0,"5125 SW 162 AVENUE MIAMI, FL 33185",25.71775N,25.71775,80.455365W,-80.455365, (305)229-4800,MARITZA CORREA,DR. MANUEL C. BARREIRO ES,e
42,42,42.0,"600 AHMAD STREET OPA-LOCKA, FL 33054",25.904428N,25.904428,80.247486W,-80.247486, (305)688-4605,DR. CYNTHIA CLAY,DR. ROBERT B. INGRAM ELEMENTARY SCHOOL,e
43,43,43.0,"27190 SW 140TH AVENUE MIAMI, FL 33032",25.51402N,25.514020000000002,80.416853W,-80.416853, (305)245-1055,CARZELL J. MORRIS,DR. WILLIAM A. CHAPMAN ES,e
44,44,44.0,"330 NW 97TH AVENUE MIAMI, FL 33172",25.769892N,25.769892000000002,80.35331W,-80.35331, (305)226-7001,NAOMI P. SIMON,E.W.F. STIRRUP ES,e
45,45,45.0,"4750 NW 22ND AVENUE MIAMI, FL 33142",25.818245N,25.818245,80.232512W,-80.232512, (305)635-7505,JACKSON J. NICOLAS,EARLINGTON HEIGHTS ES,e
46,46,46.0,"8001 SW 36TH STREET MIAMI, FL 33155",25.73691N,25.73691,80.325482W,-80.325482, (305)264-5757,LEONARDO MOURINO,EMERSON ES,e
47,47,47.0,"401 NW 29 STREET MIAMI, FL 33127",25.803773N,25.803773,80.201753W,-80.201753, (305)573-8181,TANGELA D. GOA,ENEIDA MASSAS HARTNER ES,e
48,48,48.0,"4702 SW 143RD COURT MIAMI, FL 33175",25.722366N,25.722366,80.425562W,-80.425562, (305)222-8161,CECILIA C. SANCHEZ,ETHEL KOGER BECKHAM K-8 CENTER,e
49,49,49.0,"444 SW 60TH AVENUE MIAMI, FL 33144",25.766519N,25.766519,80.293337W,-80.293337, (305)261-8880,HEATHER D. TYLER,FAIRLAWN ES,e
50,50,50.0,"920 SW 76TH AVENUE MIAMI, FL 33144",25.760567N,25.760567,80.318219W,-80.318219, (305)261-2031,MARIA C. MASON,FLAGAMI ES,e
51,51,51.0,"701 EAST 33 STREET HIALEAH, FL 33013",25.852575N,25.852575,80.268555W,-80.268555, (305)691-5531,ILEANA R. SOTOLONGO,FLAMINGO ES,e
52,52,52.0,"364 NW 6TH AVENUE FLORIDA CITY, FL 33034",25.452315N,25.452315,80.485331W,-80.485331, (305)247-4676,RACHELLE A. SURRANCY,FLORIDA CITY ES,e
53,53,53.0,"3500 DOUGLAS ROAD MIAMI, FL 33133",25.726294N,25.726294,80.253534W,-80.253534, (305)567-3533,DR. FREDRELETTE B. PICKETT,FRANCES S. TUCKER ES,e
54,54,54.0,"314 NW 12TH STREET MIAMI, FL 33136",25.785857N,25.785857,80.200704W,-80.200704, (305)371-4687,YOLANDA L. ELLIS,FREDERICK DOUGLASS ES,e
55,55,55.0,"16140 NE 18TH AVENUE NORTH MIAMI BEACH, FL 33162",25.92371N,25.92371,80.163941W,-80.16394100000001, (305)949-3425,DR. JEAN E. GORDON,FULFORD ES,e
56,56,56.0,"238 GRAND AVENUE CORAL GABLES, FL 33133",25.727471N,25.727470999999998,80.257869W,-80.257869, (305)443-5286,PATRICIA D. FAIRCLOUGH,GEORGE WASHINGTON CARVER ES,e
57,57,57.0,"17101 NE 7 AVENUE MIAMI, FL 33162",25.93346N,25.93346,80.186439W,-80.18643900000001, (305)651-2411,ALICIA M. COSTA-DEVITO,GERTRUDE K. EDELMAN/SABAL PALM ES,e
58,58,58.0,"12650 SW 109TH AVENUE MIAMI, FL 33176",25.65117N,25.65117,80.371231W,-80.37123100000001, (305)255-3934,MAYTE M. DOVALE,GLORIA FLOYD ES,e
59,59,59.0,"16520 NW 28TH AVENUE MIAMI GARDENS, FL 33054",25.925276N,25.925276,80.246693W,-80.24669300000001, (305)624-9641,ANDRIJA A. HARRISON,GOLDEN GLADES ES,e
60,60,60.0,"23555 SW 112TH AVENUE MIAMI, FL 33032",25.548673N,25.548673,80.372081W,-80.37208100000001, (305)257-4400,ALONZA PENDERGRASS III,GOULDS ELEMENTARY SCHOOL,e
61,61,61.0,"11905 N MIAMI AVENUE MIAMI, FL 33168",25.885236N,25.885236,80.198465W,-80.198465, (305)681-6685,BISLEIXIS TEJEIRO,GRATIGNY ES,e
62,62,62.0,"3060 SW 127TH AVENUE MIAMI, FL 33175",25.739452N,25.739452,80.399972W,-80.39997199999999, (305)223-5330,DR. MARIA V. TERCILLA,GREENGLADE ES,e
63,63,63.0,"1536 NE 179 STREET NORTH MIAMI BEACH, FL 33162",25.940343N,25.940343,80.169648W,-80.169648, (305)949-2129,JANINE A. TOWNSLEY,GREYNOLDS PARK ES,e
64,64,64.0,"20900 SW 97TH AVENUE CUTLER BAY, FL 33189",25.573118N,25.573118,80.34802W,-80.34801999999999, (305)235-6811,MARYBEL R. BALDESSARI,GULFSTREAM ES,e
65,65,65.0,"5222 NW 1ST STREET MIAMI, FL 33126",25.77229N,25.772289999999998,80.280848W,-80.28084799999999, (305)443-2529,ZULEMA C. LAMAZARES,HENRY M. FLAGLER ES,e
66,66,66.0,"2005 NW 111TH STREET MIAMI, FL 33167",25.875705N,25.875705,80.231575W,-80.231575, (305)953-7243,JULIAN E. GIBBS,HENRY REEVES K - 8 CENTER,e
67,67,67.0,"5300 CARILLO STREET CORAL GABLES, FL 33146",25.719437N,25.719437,80.27224W,-80.27224, (305)661-7661,BARBARA R. SOTO PUJADAS,HENRY S. WEST LABORATORY SCHOOL,e
68,68,68.0,"550 EAST 8TH STREET HIALEAH, FL 33010",25.82943N,25.82943,80.270389W,-80.270389, (305)888-6709,ROSA B. IGLESIAS,HIALEAH ES,e
69,69,69.0,"9702 NW 130 STREET HIALEAH GARDENS, FL 33018",25.891485N,25.891485,80.356925W,-80.356925, (305)827-8830,RACHEL B. AUTLER,HIALEAH GARDENS ES,e
70,70,70.0,"18701 NW 1ST AVENUE MIAMI GARDENS, FL 33169",25.946402N,25.946402,80.20327W,-80.20326999999999, (305)652-3018,VERONICA BELLO,HIBISCUS ES,e
71,71,71.0,"1175 NW 67 STREET MIAMI, FL 33150",25.835736N,25.835735999999997,80.216219W,-80.216219, (305)836-3421,DR. OTTOLITA T. THOMPSON,HOLMES ES,e
72,72,72.0,"7750 SW 136TH STREET PALMETTO BAY, FL 33156",25.644166N,25.644166000000002,80.322109W,-80.322109, (305)235-1412,DEANNA D. DALBY,HOWARD DRIVE ES,e
73,73,73.0,"14600 COUNTRY WALK DRIVE MIAMI, FL 33186",25.630344N,25.630344,80.429296W,-80.429296, (305)234-4805,MAILEEN A. FERRER,JACK D. GORDON ES,e
74,74,74.0,"2530 WEST 10TH AVENUE HIALEAH, FL 33010",25.844838N,25.844838,80.30223W,-80.30223000000001, (305)885-1683,CLAUDINE WINSOR,JAMES H. BRIGHT/J.W. JOHNSON ELEMENTARY,e
75,75,75.0,"514 NW 77TH STREET MIAMI, FL 33150",25.845316N,25.845316,80.205518W,-80.20551800000001, (305)754-7531,TRELLANY M. PARRISH-GAY,"JESSE J. MCCRARY, JR. ELEMENTARY SCHOOL",e
76,76,76.0,"1901 SW 134TH AVENUE MIAMI, FL 33175",25.749281N,25.749281,80.412978W,-80.41297800000001, (305)223-9823,CATHAY S. ABREU,JOE HALL ES,e
77,77,77.0,"6350 NW 188TH TERRACE MIAMI, FL 33015",25.944752N,25.944751999999998,80.303099W,-80.303099, (305)625-2008,LIZETTE G. O HALLORAN,JOELLA C. GOOD ES,e
78,78,78.0,"1150 WEST 59TH PLACE HIALEAH, FL 33012",25.876325N,25.876325,80.306469W,-80.30646899999999, (305)821-6361,LOURDES M. NUNEZ,JOHN G. DUPUIS ES,e
79,79,79.0,"2000 NW 46TH STREET MIAMI, FL 33142",25.816881N,25.816881,80.229734W,-80.229734, (305)633-0429,TEANDRA E. CALIXTE,KELSEY L. PHARR ES,e
80,80,80.0,"10693 SW 93RD STREET MIAMI, FL 33176",25.682676N,25.682676,80.366174W,-80.366174, (305)274-2735,ARYAM A. ALVAREZ-GARCIA,KENDALE ES,e
81,81,81.0,"8000 SW 142ND AVENUE MIAMI, FL 33183",25.692494N,25.692494,80.42479W,-80.42479, (305)385-2575,MARTHA T. JAUREGUIZAR,KENDALE LAKES ES,e
82,82,82.0,"711 NW 30 AVENUE MIAMI, FL 33125",25.779999N,25.779999,80.243887W,-80.243887, (305)649-2811,SUSANA SUAREZ,KENSINGTON PARK ES,e
83,83,83.0,"4275 NW 1 STREET MIAMI, FL 33126",25.772516N,25.772516,80.265199W,-80.265199, (305)445-1351,KISA D. HUMPHREY,KINLOCH PARK ES,e
84,84,84.0,"5101 NW 183 STREET MIAMI, FL 33055",25.939753N,25.939753,80.283578W,-80.283578, (305)625-6536,MARC W. SCHWAM,LAKE STEVENS ES,e
85,85,85.0,"1290 NW 115TH STREET MIAMI, FL 33167",25.879723N,25.879723000000002,80.219971W,-80.219971, (305)757-1535,SANDRA V. BANKY,LAKEVIEW ES,e
86,86,86.0,"505 SW 8 STREET HOMESTEAD, FL 33030",25.462467N,25.462467,80.483428W,-80.483428, (305)247-3933,BARBARA J. LEVEILLE-BROWN,LAURA C. SAUNDERS ES,e
87,87,87.0,"4700 NW 12 AVENUE MIAMI, FL 33127",25.818259N,25.818259,80.216011W,-80.216011, (305)635-0873,SHAWNTAI K. DALTON,LENORA BRAYNON SMITH ES,e
88,88,88.0,"1855 NW 71ST STREET MIAMI, FL 33147",25.83904N,25.83904,80.228151W,-80.228151, (305)691-8532,ADRIAN M. ROGERS,LIBERTY CITY ES,e
89,89,89.0,"5160 NW 31 AVENUE MIAMI, FL 33142",25.821094N,25.821094,80.246767W,-80.246767, (305)633-1424,ATUNYA R. WALKER,LORAH PARK ES,e
90,90,90.0,"6639 SW 74TH STREET SOUTH MIAMI, FL 33143",25.702046N,25.702046,80.300621W,-80.30062099999999, (305)667-5551,DR. GEORGETTE C. MENOCAL,LUDLAM ES,e
91,91,91.0,"650 WEST 33 STREET HIALEAH, FL 33012",25.851632N,25.851632000000002,80.295345W,-80.295345, (305)822-4600,MILKO O. BRITO,MAE M. WALTERS ES,e
92,92,92.0,"11901 SW 2 STREET MIAMI, FL 33184",25.766201N,25.766201000000002,80.38889W,-80.38889, (305)226-4356,MORAIMA ALMEIDA-PEREZ,MARJORY STONEMAN DOUGLAS ES,e
93,93,93.0,"1850 NW 32 STREET MIAMI, FL 33142",25.805766N,25.805766000000002,80.226788W,-80.226788, (305)636-3480,DR. DONNA M. LEWIS,MAYA ANGELOU ES,e
94,94,94.0,"4280 W 8TH AVENUE HIALEAH, FL 33012",25.861728N,25.861728,80.298665W,-80.298665, (305)822-0660,MARITZA M. GARCIA,MEADOWLANE ES,e
95,95,95.0,"3050 NW 35TH STREET MIAMI, FL 33142",25.808009N,25.808009,80.245229W,-80.24522900000001, (305)635-8676,SERGIO A. MUNOZ,MELROSE ES,e
96,96,96.0,"4444 NW 195TH STREET MIAMI GARDENS, FL 33055",25.950683N,25.950682999999998,80.275428W,-80.275428, (305)625-5321,KATHLEEN JOHN-LOUISSAINT,MIAMI GARDENS ES,e
97,97,97.0,"17661 SW 117TH AVENUE MIAMI, FL 33177",25.60411N,25.604110000000002,80.381398W,-80.381398, (305)238-3602,RENITA L. LEE,MIAMI HEIGHTS ES,e
98,98,98.0,"2225 NW 103RD STREET MIAMI, FL 33147",25.868356N,25.868356,80.235401W,-80.235401, (305)691-6361,DR. YVONNE D. PERRY,MIAMI PARK ES,e
99,99,99.0,"10351 NE 5TH AVENUE MIAMI SHORES, FL 33138",25.87093N,25.870929999999998,80.187649W,-80.187649, (305)758-5525,BRENDA L. SWAIN,MIAMI SHORES ES,e
100,100,100.0,"51 PARK STREET MIAMI SPRINGS, FL 33166",25.822828N,25.822828,80.284538W,-80.284538, (305)888-4558,KRISTIN E. HAYES,MIAMI SPRINGS ES,e
101,101,101.0,"1840 NW 157TH STREET MIAMI GARDENS, FL 33054",25.917175N,25.917175,80.230874W,-80.230874, (305)625-3885,DR. MARIA A. CASTAIGNE,N. DADE CTR. FOR MODERN LANG. ES,e
102,102,102.0,"14120 NW 24TH AVENUE OPA-LOCKA, FL 33054",25.903913N,25.903913,80.239669W,-80.23966899999999, (305)685-7204,DR. TONYA S. DILLARD,NATHAN B. YOUNG ES,e
103,103,103.0,"1650 NE 141ST STREET NORTH MIAMI, FL 33181",25.905754N,25.905754,80.164785W,-80.164785, (305)891-8649,FRANK V. MACBRIDE JR,NATURAL BRIDGE ES,e
104,104,104.0,"19340 NW 8TH COURT MIAMI GARDENS, FL 33169",25.952303N,25.952303,80.216081W,-80.216081, (305)652-6074,DR. CHRISTINA M. RAVELO,NORLAND ES,e
105,105,105.0,"15950 SW 144TH STREET MIAMI, FL 33196",25.632422N,25.632422000000002,80.45255W,-80.45255, (305)254-5200,CONCEPCION C. SANTANA,NORMA BUTLER BOSSARD ES,e
106,106,106.0,"4100 PRAIRIE AVENUE MIAMI BEACH, FL 33140",25.814394N,25.814394,80.130461W,-80.130461, (305)531-7666,MELANIE B. FISHMAN,NORTH BEACH ES,e
107,107,107.0,"5000 NW 177 STREET MIAMI, FL 33055",25.934122N,25.934122,80.283238W,-80.283238, (305)624-3608,ANN M. LEWIS,NORTH GLADE ES,e
108,108,108.0,"4251 EAST 5 AVENUE HIALEAH, FL 33013",25.861266N,25.861266,80.272669W,-80.272669, (305)681-4611,CARLOS A. SALCEDO,NORTH HIALEAH ES,e
109,109,109.0,"655 NE 145 STREET NORTH MIAMI, FL 33161",25.908565N,25.908565,80.185584W,-80.18558399999999, (305)949-6156,DEBRA L. DUBIN,NORTH MIAMI ES,e
110,110,110.0,"625 WEST 74TH PLACE HIALEAH, FL 33014",25.889959N,25.889959,80.296804W,-80.29680400000001, (305)822-0721,JOSE R. FERNANDEZ,NORTH TWIN LAKES ES,e
111,111,111.0,"19810 NW 14TH COURT MIAMI GARDENS, FL 33169",25.954859N,25.954859,80.226585W,-80.226585, (305)653-0068,DR. KEVIN N. WILLIAMS,NORWOOD ES,e
112,112,112.0,"15640 NE 8TH AVENUE MIAMI, FL 33162",25.918521N,25.918521,80.183761W,-80.183761, (305)945-1511,JOYCE R. JONES,OAK GROVE ES,e
113,113,113.0,"18600 WEST DIXIE HIGHWAY MIAMI, FL 33180",25.948583N,25.948583,80.148771W,-80.148771, (305)931-4881,DR. MARTA M. MEJIA,OJUS ES,e
114,114,114.0,"9050 HAMMOCKS BOULEVARD MIAMI, FL 33196",25.682505N,25.682505,80.436497W,-80.436497, (305)385-4382,MERCY AGUILAR,OLIVER HOOVER ES,e
115,115,115.0,"9797 SW 40TH STREET MIAMI, FL 33165",25.732724N,25.732723999999997,80.354094W,-80.35409399999999, (305)221-3821,VICTORIA E. BOURLAND,OLYMPIA HEIGHTS ES,e
116,116,116.0,"5720 NW 13TH AVENUE MIAMI, FL 33142",25.827777N,25.827776999999998,80.218465W,-80.21846500000001, (305)754-0607,TANYA S. DALY-BARNES,ORCHARD VILLA ES,e
117,117,117.0,"7450 WEST 16TH AVENUE HIALEAH, FL 33014",25.890413N,25.890413,80.315878W,-80.315878, (305)823-6970,ALINA Q. IGLESIAS,PALM LAKES ES,e
118,118,118.0,"6304 EAST 1 AVENUE HIALEAH, FL 33013",25.88063N,25.88063,80.281307W,-80.281307, (305)822-0911,ROXANA D. HERRERA,PALM SPRINGS ES,e
119,119,119.0,"17615 NW 82 AVENUE MIAMI, FL 33015",25.933881N,25.933881,80.334814W,-80.334814, (305)821-4631,MARIBEL B. DOTRES,PALM SPRINGS NORTH ES,e
120,120,120.0,"12401 SW 74 AVENUE PINECREST, FL 33156",25.653884N,25.653883999999998,80.314049W,-80.314049, (305)238-4306,ERIC TORRES,PALMETTO ES,e
121,121,121.0,"17631 NW 20TH AVENUE MIAMI GARDENS, FL 33056",25.935106N,25.935106,80.234982W,-80.23498199999999, (305)625-1591,DR. CRYSTAL SPENCE,PARKVIEW ES,e
122,122,122.0,"1320 NW 188TH STREET MIAMI GARDENS, FL 33169",25.946143N,25.946143,80.224418W,-80.224418, (305)653-0066,MARIA C. FERNANDEZ,PARKWAY ES,e
123,123,123.0,"1801 NW 1ST PLACE MIAMI, FL 33136",25.793541N,25.793541,80.198431W,-80.198431, (305)573-2638,CATHY M. WILLIAMS,PHILLIS WHEATLEY ES,e
124,124,124.0,"840 NE 87TH STREET MIAMI, FL 33138",25.855365N,25.855365,80.179806W,-80.179806, (305)756-3800,KIMBERLEY F. EMMANUEL,PHYLLIS RUTH MILLER ES,e
125,125,125.0,"16700 SW 109TH AVENUE MIAMI, FL 33157",25.614161N,25.614161,80.369661W,-80.369661, (305)233-7018,CRYSTAL C. COFFEY,PINE LAKE ES,e
126,126,126.0,"21799 SW 117TH COURT MIAMI, FL 33170",25.564371N,25.564370999999998,80.381439W,-80.381439, (305)258-5366,ELIANEYS BASULTO,PINE VILLA ES,e
127,127,127.0,"10250 SW 57TH AVENUE PINECREST, FL 33156",25.675899N,25.675898999999998,80.284403W,-80.284403, (305)667-5579,LYNN M. ZALDUA,PINECREST ES,e
128,128,128.0,"6745 NW 23RD AVENUE MIAMI, FL 33147",25.836154N,25.836154,80.235238W,-80.235238, (305)691-5640,TANIA L. JONES,POINCIANA PARK ES,e
129,129,129.0,"15355 NW 19TH AVENUE MIAMI GARDENS, FL 33054",25.914329N,25.914329000000002,80.232082W,-80.23208199999999, (305)688-4631,ROBIN T. ARMSTRONG,RAINBOW PARK ES,e
130,130,130.0,"24501 SW 162 AVENUE MIAMI, FL 33031",25.538678N,25.538678,80.453593W,-80.45359300000001, (305)247-8141,ADRIAN MONTES,REDLAND ES,e
131,131,131.0,"18480 SW 304 STREET HOMESTEAD, FL 33030",25.484359N,25.484359,80.494723W,-80.494723, (305)247-5943,KEITH A. ANDERSON,REDONDO ES,e
132,132,132.0,"1190 SW 2ND STREET MIAMI, FL 33130",25.771554N,25.771554000000002,80.214461W,-80.214461, (305)547-1520,DR. ERICA Y. PARAMORE-RESPRESS,RIVERSIDE ES,e
133,133,133.0,"18050 HOMESTEAD AVENUE MIAMI, FL 33157",25.601589N,25.601589,80.355308W,-80.355308, (305)235-3612,ERIC L. WRIGHT,ROBERT RUSSA MOTON ES,e
134,134,134.0,"2790 SW 93RD COURT MIAMI, FL 33165",25.743752N,25.743752,80.346069W,-80.346069, (305)221-1192,SYLVIA COTO-GONZALEZ,ROCKWAY ES,e
135,135,135.0,"13047 SW 47TH STREET MIAMI, FL 33175",25.722061N,25.722061,80.405594W,-80.405594, (305)221-4452,ALBA M. MISAS,ROYAL GREEN ES,e
136,136,136.0,"4200 SW 112TH COURT MIAMI, FL 33165",25.729952N,25.729951999999997,80.376388W,-80.376388, (305)221-7961,MARTA GARCIA,ROYAL PALM ES,e
137,137,137.0,"1051 NW 29TH TERRACE MIAMI, FL 33127",25.804261N,25.804261,80.212542W,-80.212542, (305)635-1417,STEPHEN E. PAPP,SANTA CLARA ES,e
138,138,138.0,"1160 NW 175TH STREET MIAMI GARDENS, FL 33169",25.934586N,25.934586,80.219751W,-80.219751, (305)624-1443,LAKESHA M. WILSON-ROCHELLE,SCOTT LAKE ES,e
139,139,139.0,"121 SW 78TH PLACE MIAMI, FL 33144",25.768947N,25.768947,80.323675W,-80.323675, (305)261-7071,MAYRA DELEON,SEMINOLE ES,e
140,140,140.0,"149 NW 49TH STREET MIAMI, FL 33127",25.820766N,25.820766,80.198799W,-80.198799, (305)758-3673,GWENDOLYN HAYNES,SHADOWLAWN ES,e
141,141,141.0,"1023 SW 21ST AVENUE MIAMI, FL 33135",25.762761N,25.762760999999998,80.228542W,-80.228542, (305)643-4433,MICHELLE L. COTO,SHENANDOAH ES,e
142,142,142.0,"2609 SW 25TH AVENUE MIAMI, FL 33133",25.743477N,25.743477,80.235947W,-80.235947, (305)856-5197,MAYRA BARREIRA,SILVER BLUFF ES,e
143,143,143.0,"10151 SW 64TH STREET MIAMI, FL 33173",25.708609N,25.708609,80.357483W,-80.357483, (305)271-2111,DR. MIRTA R. SEGREDO,SNAPPER CREEK ES,e
144,144,144.0,"265 E 5 STREET HIALEAH, FL 33010",25.826452N,25.826452,80.276457W,-80.276457, (305)885-4556,RAMSES ANCHETA,SOUTH HIALEAH ES,e
145,145,145.0,"12231 SW 190TH TERRACE MIAMI, FL 33177",25.590095N,25.590095,80.389967W,-80.389967, (305)238-6610,DR. YOLANDA D. GREEN-SAMUEL,SOUTH MIAMI HEIGHTS ES,e
146,146,146.0,"1050 FOURTH STREET MIAMI BEACH, FL 33139",25.773549N,25.773549,80.138832W,-80.138832, (305)531-5437,JORGE MAZON,SOUTH POINTE ES,e
147,147,147.0,"45 SW 13TH STREET MIAMI, FL 33130",25.76156N,25.76156,80.194721W,-80.194721, (305)371-3311,ANNETTE DEGOTI,SOUTHSIDE ES,e
148,148,148.0,"7940 NW 194TH STREET MIAMI, FL 33015",25.949586N,25.949586,80.331599W,-80.331599, (305)816-0300,JACQUELINE ARIAS-GONZALEZ,SPANISH LAKE ELEMENTARY SCHOOL,e
149,149,149.0,"1122 BLUEBIRD AVENUE MIAMI SPRINGS, FL 33166",25.833469N,25.833469,80.303856W,-80.30385600000001, (305)885-6466,CATALINA FLOR,SPRINGVIEW ES,e
150,150,150.0,"5120 SW 72ND STREET MIAMI, FL 33143",25.70485N,25.70485,80.275884W,-80.27588399999999, (305)661-8527,DR. MARLENE LEYTE VIDAL,SUNSET ES,e
151,151,151.0,"10235 SW 84TH STREET MIAMI, FL 33173",25.690836N,25.690835999999997,80.35843W,-80.35843, (305)279-3222,WENDY S. HERNANDEZ,SUNSET PARK ES,e
152,152,152.0,"10655 SW 4TH STREET SWEETWATER, FL 33174",25.764902N,25.764902,80.367618W,-80.36761800000001, (305)559-1101,JANET P. OLIVERA,SWEETWATER ES,e
153,153,153.0,"5901 SW 16TH STREET WEST MIAMI, FL 33155",25.756141N,25.756141,80.292615W,-80.292615, (305)266-3511,AMOR REYES,SYLVANIA HEIGHTS ES,e
154,154,154.0,"120 NE 59 STREET MIAMI, FL 33137",25.829632N,25.829632,80.193714W,-80.193714, (305)758-2600,DR. LILIA A. DOBAO,TOUSSAINT L'OUVERTURE ES,e
155,155,155.0,"7540 EAST TREASURE DRIVE NORTH BAY VILLAGE, FL 33141",25.846529N,25.846529,80.146292W,-80.146292, (305)865-3141,DALIA VILLAR,TREASURE ISLAND ELEMENTARY,e
156,156,156.0,"4545 SW 104TH AVENUE MIAMI, FL 33165",25.726263N,25.726263,80.363449W,-80.363449, (305)221-0284,VIVIANA BOUZA DEBS,TROPICAL ES,e
157,157,157.0,"6735 WEST 5TH PLACE HIALEAH, FL 33012",25.883575N,25.883575,80.294924W,-80.294924, (305)822-0770,IVETTE BERNAL-PINO,TWIN LAKES ES,e
158,158,158.0,"10327 NW 11TH AVENUE MIAMI, FL 33150",25.870046N,25.870046,80.216059W,-80.216059, (305)696-9241,PEDRO R. CEDENO,VAN E. BLANTON ES,e
159,159,159.0,"12265 SW 34TH STREET MIAMI, FL 33175",25.736979N,25.736979,80.393193W,-80.39319300000001, (305)226-0441,HENRY FERNANDEZ,VILLAGE GREEN ES,e
160,160,160.0,"20500 NE 24TH AVENUE MIAMI, FL 33180",25.965964N,25.965964000000003,80.153715W,-80.153715, (305)931-1770,JULIO FONG,VIRGINIA A BOONE/HIGHLAND OAKS ES,e
161,161,161.0,"1201 NE 125 STREET NORTH MIAMI, FL 33161",25.890839N,25.890839,80.173358W,-80.173358, (305)891-0602,MILAGROS L. MAYTIN,W.J. BRYAN ES,e
162,162,162.0,"12345 SW 18TH TERRACE MIAMI, FL 33175",25.750966N,25.750966000000002,80.396115W,-80.39611500000001, (305)222-8150,ARMANDINA ACOSTA-LEON,WESLEY MATTHEWS ES,e
163,163,163.0,"11990 NW 92 AVENUE HIALEAH GARDENS, FL 33018",25.881621N,25.881621,80.347602W,-80.347602, (305)818-4000,SHARON M. GONZALEZ,WEST HIALEAH GARDENS ELEMENTARY SCHOOL,e
164,164,164.0,"18929 SW 89TH ROAD CUTLER BAY, FL 33157",25.590265N,25.590265,80.335601W,-80.335601, (305)238-7382,TAMELA L. BROWN,WHISPERING PINES ES,e
165,165,165.0,"10990 SW 113TH PLACE MIAMI, FL 33176",25.666855N,25.666854999999998,80.37902W,-80.37902, (305)273-2140,ADA M. MONTERO,WILLIAM LEHMAN ES,e
166,166,166.0,"13137 SW 26TH STREET MIAMI, FL 33175",25.743842N,25.743842,80.407446W,-80.407446, (305)222-8152,ISABEL G. VALENZANO,ZORA NEALE HURSTON ES,e
167,167,167.0,"121 NE 207TH STREET MIAMI GARDENS, FL 33179",25.965615N,25.965615,80.199351W,-80.19935100000001, (305)654-2727,KENNETH L. WILLIAMS,ANDOVER MIDDLE SCHOOL ,m
168,168,168.0,"10900 SW 127TH AVENUE MIAMI, FL 33186",25.66682N,25.66682,80.400037W,-80.400037, (305)385-7144,NANCY S. ARAGON,ARVIDA MS,m
169,169,169.0,"4899 NW 24TH AVENUE MIAMI, FL 33142",25.819511N,25.819511,80.236552W,-80.236552, (305)633-1481,MARCUS L. MILLER,BROWNSVILLE MS,m
170,170,170.0,"3737 NW 188TH STREET MIAMI GARDENS, FL 33055",25.944771N,25.944771,80.262222W,-80.262222, (305)624-2652,DEREK A. NEGRON,CAROL CITY MS,m
171,171,171.0,"2153 NW 3RD STREET MIAMI, FL 33125",25.776173N,25.776173,80.230057W,-80.23005699999999, (305)642-5055,DR. CORY R. RODRIGUEZ,CITRUS GROVE MS,m
172,172,172.0,"18305 NW 75TH PLACE MIAMI, FL 33015",25.94007N,25.940070000000002,80.323357W,-80.323357, (305)820-8800,CYNTHIA M. LIMA,COUNTRY CLUB MIDDLE SCHOOL,m
173,173,173.0,"19400 GULFSTREAM ROAD CUTLER BAY, FL 33157",25.588234N,25.588234,80.348099W,-80.348099, (305)235-4761,IGNACIO RODRIGUEZ,CUTLER BAY MS,m
174,174,174.0,"4901 LINCOLN DRIVE CORAL GABLES, FL 33133",25.72677N,25.726770000000002,80.259391W,-80.25939100000001, (305)444-7388,SHELLEY F. STROLENY,GEORGE WASHINGTON CARVER MS,m
175,175,175.0,"1331 NW 46TH STREET MIAMI, FL 33142",25.81723N,25.81723,80.218694W,-80.218694, (305)634-9787,DR. CAROL R. SAMPSON,GEORGIA JONES-AYERS MIDDLE SCHOOL,m
176,176,176.0,"9451 SW 64TH STREET MIAMI, FL 33173",25.708965N,25.708965,80.348526W,-80.348526, (305)271-3342,CYNTHIA VALDES-GARCIA,GLADES MS,m
177,177,177.0,"9889 HAMMOCKS BOULEVARD MIAMI, FL 33196",25.675217N,25.675217,80.442755W,-80.442755, (305)385-0896,DEBORAH LEAL,HAMMOCKS MS,m
178,178,178.0,"531 WEST 29 STREET HIALEAH, FL 33012",25.848008N,25.848008,80.293319W,-80.293319, (305)822-6601,JOHN J. DONOHUE,HENRY H. FILER MS,m
179,179,179.0,"17990 SW 142ND AVENUE MIAMI, FL 33177",25.600289N,25.600289,80.421697W,-80.421697, (305)971-0158,MARIA COSTA,HERBERT A. AMMONS MS,m
180,180,180.0,"11690 NW 92 AVENUE HIALEAH GARDENS, FL 33018",25.875995N,25.875995,80.349179W,-80.349179, (305)817-0017,MARITZA D. JIMENEZ,HIALEAH GARDENS MIDDLE SCHOOL,m
181,181,181.0,"6027 EAST 7 AVENUE HIALEAH, FL 33013",25.878251N,25.878251000000002,80.269053W,-80.269053, (305)681-3527,NELSON L. GONZALEZ,HIALEAH MS,m
182,182,182.0,"2375 NE 203RD STREET MIAMI, FL 33180",25.963201N,25.963201,80.15406W,-80.15406, (305)932-3810,CHERYL L. KUSHI,HIGHLAND OAKS MS,m
183,183,183.0,"650 NW 2ND AVENUE HOMESTEAD, FL 33030",25.474511N,25.474511,80.4815W,-80.4815, (305)247-4221,DR. CONTESSA S. BRYANT,HOMESTEAD MS,m
184,184,184.0,"8950 NW 2ND AVENUE MIAMI, FL 33150",25.856524N,25.856524,80.201325W,-80.201325, (305)757-9537,KEVIN E. LAWRENCE,HORACE MANN MS,m
185,185,185.0,"13100 SW 59TH STREET MIAMI, FL 33183",25.713305N,25.713305,80.406619W,-80.40661899999999, (305)385-6877,HILCA THOMAS,HOWARD D. MCMILLAN MS,m
186,186,186.0,"1075 NE 167TH STREET MIAMI, FL 33162",25.929022N,25.929022,80.178188W,-80.178188, (305)947-1451,BERNARD L. OSBORN,JOHN F. KENNEDY MS,m
187,187,187.0,"15735 SW 144 STREET MIAMI, FL 33196",25.63264N,25.63264,80.448384W,-80.44838399999999, (305)252-5900,ELIO FALCON JR,JORGE MAS CANOSA MS,m
188,188,188.0,"3100 NW FIFTH AVENUE MIAMI, FL 33127",25.805666N,25.805666,80.203311W,-80.203311, (305)573-7229,DR. APRIL M. THOMPSON-WILLIAMS,JOSE DE DIEGO MS,m
189,189,189.0,"4340 NW 3RD STREET MIAMI, FL 33126",25.775141N,25.775141,80.266843W,-80.26684300000001, (305)445-5467,SCOTT A. WEINER,KINLOCH PARK MS,m
190,190,190.0,"18484 NW 48TH PLACE MIAMI, FL 33055",25.940968N,25.940967999999998,80.281384W,-80.281384, (305)620-1294,JORGE M. BULNES,LAKE STEVENS MS,m
191,191,191.0,"15750 SW 47 STREET MIAMI, FL 33185",25.720681N,25.720681,80.44848W,-80.44848, (305)222-2775,JEAN R. BARIL,LAMAR LOUISE CURRY MS,m
192,192,192.0,"8190 NW 197 STREET MIAMI, FL 33015",25.95245N,25.95245,80.333687W,-80.333687, (305)816-9101,STEPHANIE M. TUDOR,LAWTON CHILES MS,m
193,193,193.0,"3400 NW 87TH STREET MIAMI, FL 33147",25.853062N,25.853061999999998,80.253317W,-80.25331700000001, (305)836-2610,DAVID T. LADD,MADISON MS,m
194,194,194.0,"6425 MIAMI LAKEWAY NORTH MIAMI LAKES, FL 33014",25.917896N,25.917896,80.307337W,-80.307337, (305)557-3900,MARIA MEDINA,MIAMI LAKES MS,m
195,195,195.0,"150 SOUTH ROYAL POINCIANA BOULEVARD MIAMI SPRINGS, FL 33166",25.815609N,25.815609,80.272839W,-80.272839, (305)888-6457,ALINA VALERO,MIAMI SPRINGS MIDDLE,m
196,196,196.0,"4301 NORTH MICHIGAN AVENUE MIAMI BEACH, FL 33140",25.816108N,25.816108,80.135545W,-80.135545, (305)532-3481,RENE BELLMAS,NAUTILUS MS,m
197,197,197.0,"1235 NW 192ND TERRACE MIAMI GARDENS, FL 33169",25.95054N,25.95054,80.222971W,-80.222971, (305)653-1210,RONALD G. REDMON,NORLAND MS,m
198,198,198.0,"1840 NW 157 STREET MIAMI GARDENS, FL 33054",25.917175N,25.917175,80.230874W,-80.230874, (305)624-8415,KHARIM ARMAND,NORTH DADE MS,m
199,199,199.0,"700 NE 137TH STREET NORTH MIAMI, FL 33161",25.901335N,25.901335,80.182881W,-80.18288100000001, (305)891-5611,MIRIAME STEWART,NORTH MIAMI MS,m
200,200,200.0,"1025 WEST 56 STREET HIALEAH, FL 33012",25.873426N,25.873426000000002,80.305383W,-80.30538299999999, (305)821-2460,LEONARD T. TORRES,PALM SPRINGS MS,m
201,201,201.0,"7351 SW 128TH STREET PINECREST, FL 33156",25.651941N,25.651941,80.312859W,-80.312859, (305)238-3911,JESUS GONZALEZ,PALMETTO MS,m
202,202,202.0,"11800 NW 2ND STREET MIAMI, FL 33182",25.769764N,25.769764000000002,80.388957W,-80.38895699999999, (305)220-2075,INGRID G. SOTO,PAUL W. BELL MS,m
203,203,203.0,"5801 AUGUSTO STREET CORAL GABLES, FL 33146",25.717N,25.717,80.273609W,-80.273609, (305)661-1611,HEBERT M. PENTON,PONCE DE LEON MS,m
204,204,204.0,"16001 SW 248 STREET MIAMI, FL 33031",25.536088N,25.536088,80.452996W,-80.452996, (305)247-6112,GREGORY A. BECKFORD,REDLAND MS,m
205,205,205.0,"15015 SW 103TH AVENUE MIAMI, FL 33176",25.631764N,25.631764,80.360192W,-80.360192, (305)238-2316,LARHONDA M. DONALDSON,RICHMOND HEIGHTS MS,m
206,206,206.0,"10301 SW 48TH STREET MIAMI, FL 33165",25.722986N,25.722986,80.36144W,-80.36144, (305)226-4286,BARBARA A. MENDIZABAL,RIVIERA MS,m
207,207,207.0,"9393 SW 29TH TERRACE MIAMI, FL 33165",25.74217N,25.74217,80.347568W,-80.34756800000001, (305)221-8212,JOSEPHINE OTERO,ROCKWAY MS,m
208,208,208.0,"350 NW 97TH AVENUE MIAMI, FL 33172",25.771655N,25.771655,80.353483W,-80.353483, (305)226-0179,DR. VERONA C. MCCARTHY,RUBEN DARIO MS,m
209,209,209.0,"1950 SW 19TH STREET MIAMI, FL 33145",25.754435N,25.754435,80.227217W,-80.22721700000001, (305)856-8282,BIANCA M. CALZADILLA,SHENANDOAH MS,m
210,210,210.0,"29100 SW 194TH AVENUE MIAMI, FL 33030",25.496142N,25.496142000000003,80.505943W,-80.505943, (305)224-5200,JOHN A. GALARDI,SOUTH DADE MIDDLE SCHOOL - GRADES 4-8,m
211,211,211.0,"6750 SW 60TH STREET SOUTH MIAMI, FL 33143",25.714602N,25.714602,80.30361W,-80.30360999999999, (305)661-3481,FABIOLA V. IZAGUIRRE,SOUTH MIAMI MS,m
212,212,212.0,"16301 SW 80TH AVENUE PALMETTO BAY, FL 33157",25.619469N,25.619469,80.322804W,-80.322804, (305)251-5361,RAUL F. GARCIA,SOUTHWOOD MIDDLE SCHOOL,m
213,213,213.0,"525 NW 147TH STREET MIAMI, FL 33168",25.909467N,25.909467000000003,80.208157W,-80.208157, (305)681-7481,ALEXANDER SANTOYO,THOMAS JEFFERSON MS,m
214,214,214.0,"13001 SW 26 STREET MIAMI, FL 33175",25.743879N,25.743879,80.406446W,-80.406446, (305)995-3800,WENDY A. BARNETT,W. R. THOMAS MS,m
215,215,215.0,"7525 SW 24TH STREET MIAMI, FL 33155",25.748192N,25.748192,80.318317W,-80.31831700000001, (305)261-8383,KATYNA D. LOPEZ-MARTIN,WEST MIAMI MS,m
216,216,216.0,"1901 NW 127 ST            MIAMI               , FL 33167",25.890256N,25.890256,80.23178W,-80.23178, (305)681-6647,VALTENA G. BROWN,WESTVIEW MIDDLE               ,m
217,217,217.0,"2601 NE 151 STREET NORTH MIAMI, FL 33160",25.915639N,25.915639000000002,80.147421W,-80.147421, (305)919-2000,CHRISTOPHER J. SHINN,ALONZO AND TRACY MOURNING SENIOR HIGH BISCAYNE BAY,h
218,218,218.0,"18350 NW 67TH AVENUE MIAMI, FL 33015",25.939593N,25.939593,80.306924W,-80.306924, (305)557-3770,DR. URSULA J. GARBUTT,AMERICAN SHS,h
219,219,219.0,"11700 SW 216 STREET MIAMI, FL 33170",25.566258N,25.566257999999998,80.382214W,-80.382214, (305)233-2300,MARTIN T. REID,ARTHUR AND POLLY MAYS CONSERVATORY OF THE ARTS,h
220,220,220.0,"14100 NW 89TH AVENUE MIAMI LAKES, FL 33018",25.902489N,25.902489000000003,80.344533W,-80.344533, (305)362-0676,DR. MANUEL SANCHEZ III,BARBARA GOLEMAN SHS,h
221,221,221.0,"15020 SW 102ND AVENUE MIAMI, FL 33176",25.629427N,25.629427,80.358056W,-80.358056, (786)573-5353,DANIEL M. MATEO,BIOTECH @ RICHMOND HEIGHTS 9-12 HIGH SCHOOL,h
222,222,222.0,"1200 NW 6TH AVENUE MIAMI, FL 33136",25.786784N,25.786784,80.203999W,-80.203999, (305)324-8900,WILLIAM ARISTIDE,BOOKER T. WASHINGTON SHS,h
223,223,223.0,"900 NE 23 AVE. HOMESTEAD, FL 33033",25.47748N,25.47748,80.44661W,-80.44660999999999, (305)248-7911,LISA L. PIZZIMENTI,CENTER FOR INTERNATIONAL EDUCATION: A CAMBRIDGE AS,h
224,224,224.0,"450 BIRD ROAD CORAL GABLES, FL 33146",25.734681N,25.734681,80.263154W,-80.263154, (305)443-4871,ADOLFO L. COSTA,CORAL GABLES SHS,h
225,225,225.0,"10101 SW 152 STREET MIAMI, FL 33157",25.62854N,25.62854,80.356322W,-80.35632199999999, (305)232-2044,THOMAS P. ENNIS,CORAL REEF SHS,h
226,226,226.0,"8601 SW 212TH STREET CUTLER BAY, FL 33189",25.5705N,25.5705,80.330413W,-80.33041300000001, (305)235-1581,LUCAS J. DELATORRE,CUTLER BAY SHS,h
227,227,227.0,"4001 NE 2ND AVENUE MIAMI, FL 33137",25.813486N,25.813485999999997,80.191374W,-80.191374, (305)573-7135,ANA C. ALVAREZ-ARIMON,DESIGN & ARCHITECTURE SHS,h
228,228,228.0,"1410 NE 215TH STREET MIAMI, FL 33179",25.973648N,25.973648,80.174925W,-80.174925, (305)652-6808,DR. ALLISON HARLEY,DR MICHAEL M. KROP SHS,h
229,229,229.0,"15255 SW 96 STREET MIAMI, FL 33196",25.677284N,25.677284,80.442809W,-80.442809, (305)752-7900,NERY P. FINS,FELIX VARELA SHS,h
230,230,230.0,"3601 SW 147TH AVENUE MIAMI, FL 33185",25.734854N,25.734854000000002,80.431858W,-80.43185799999999, (305)225-9729,ALLEN N. BREEDING III,G. HOLMES BRADDOCK SHS,h
231,231,231.0,"11700 HIALEAH GARDENS BLVD HIALEAH GARDENS, FL 33018",25.898421N,25.898421,80.351465W,-80.351465, (305)698-5000,DR. LOUIS J. ALGAZE,HIALEAH GARDENS SHS,h
232,232,232.0,"251 EAST 47 STREET HIALEAH, FL 33013",25.865129N,25.865129,80.28071W,-80.28071, (305)822-1500,HERIBERTO SANCHEZ,HIALEAH SHS,h
233,233,233.0,"7977 WEST 12TH AVENUE HIALEAH, FL 33014",25.896563N,25.896563,80.308079W,-80.308079, (305)823-1330,LISA B. GARCIA,HIALEAH-MIAMI LAKES SHS,h
234,234,234.0,"2351 SE 12TH AVENUE HOMESTEAD, FL 33034",25.450668N,25.450668,80.460621W,-80.460621, (305)245-7000,GUILLERMO A. MUNOZ,HOMESTEAD SHS,h
235,235,235.0,"1570 MADRUGA AVENUE CORAL GABLES, FL 33146",25.707163N,25.707163,80.284564W,-80.284564, (305)663-7200,DR. ALINA M. DIAZ-BLANCO,INTERNATIONAL STUDIES PREPARATORY ACADEMY ,h
236,236,236.0,"1500 BISCAYNE BLVD, RM  MIAMI, FL 33132",25.789752N,25.789752,80.189075W,-80.189075, (305)995-1929,ALBERTO M. CARVALHO,IPREPARATORY ACADEMY,h
237,237,237.0,"6101 NW 2ND AVE MIAMI, FL 33127",25.831723N,25.831723,80.200307W,-80.200307, (305)762-5000,DR. LASHINDA S. MOORE,ITECH @ THOMAS A. EDISON ED. CTR.,h
238,238,238.0,"15900 SW 56 STREET MIAMI, FL 33185",25.713199N,25.713199,80.452439W,-80.452439, (305)408-2700,RAFAEL A. VILLALOBOS,JOHN A. FERGUSON SHS,h
239,239,239.0,"5701 WEST 24 AVENUE HIALEAH, FL 33016",25.875135N,25.875135,80.331255W,-80.331255, (305)557-5931,JOSE ENRIQUEZ JR,JOSE MARTI MAST 6-12 ACADEMY,h
240,240,240.0,"300 NW 2ND AVENUE MIAMI, FL 33128",25.776932N,25.776932000000002,80.197815W,-80.197815, (305)371-0400,TONY G. ULLIVARRI,LAW ENFORCEMENT OFFICERS MEMORIAL HIGH SCHOOL,h
241,241,241.0,"3979 RICKENBACKER CAUSEWAY MIAMI, FL 33149",25.738418N,25.738418,80.16753W,-80.16753, (305)365-6278,DR. DERICK R. MCKOY,MARITIME & SCIENCE TECHNOLOGY ACADEMY,h
242,242,242.0,"3000 NE 151ST STREET, AC-1, ROOM 395 NORTH MIAMI, FL 33181",25.915694N,25.915694000000002,80.140932W,-80.14093199999999, (305)919-4450,DR. MATTHEW J. WELKER,MAST @ FIU Biscayne Bay Campus,h
243,243,243.0,"1220 NW 1ST AVENUE HOMESTEAD, FL 33030",25.4822N,25.4822,80.479592W,-80.47959200000001, (305)257-4500,LISA S. NOFFO,MEDICAL ACADEMY FOR SCIENCE AND TECHNOLOGY,h
244,244,244.0,"15015 SW 24 STREET MIAMI, FL 33185",25.744688N,25.744688,80.438313W,-80.438313, (305)485-2323,DR. MIGUEL A. BALSERA,MIAMI ARTS STUDIO 6-12 AT ZELDA GLAZER,h
245,245,245.0,"2231 PRAIRIE AVENUE MIAMI BEACH, FL 33139",25.799892N,25.799892,80.133625W,-80.133625, (305)532-4515,DR. MARIA T. RODRIGUEZ,MIAMI BEACH SHS,h
246,246,246.0,"3301 MIAMI GARDENS DRIVE MIAMI GARDENS, FL 33056",25.940558N,25.940558,80.257044W,-80.257044, (305)621-5681,ADRENA Y. WILLIAMS,MIAMI CAROL CITY SHS,h
247,247,247.0,"1781 NW 95TH STREET MIAMI, FL 33147",25.861115N,25.861114999999998,80.228215W,-80.228215, (305)696-4161,GREGORY M. BETHUNE,MIAMI CENTRAL SHS,h
248,248,248.0,"8865 SW 16TH STREET MIAMI, FL 33165",25.754824N,25.754824,80.33979W,-80.33979000000001, (305)226-6565,ALICIA HIDALGO,MIAMI CORAL PARK SHS,h
249,249,249.0,"6161 NW 5TH COURT MIAMI, FL 33127",25.832158N,25.832158,80.205434W,-80.205434, (305)751-7337,LEON P. MAYCOCK,MIAMI EDISON SHS,h
250,250,250.0,"1751 NW 36TH STREET MIAMI, FL 33142",25.809513N,25.809513,80.225029W,-80.225029, (305)634-2621,RENNINA L. TURNER,MIAMI JACKSON SHS,h
251,251,251.0,"10655 SW 97TH AVENUE MIAMI, FL 33176",25.670277N,25.670277,80.351239W,-80.351239, (305)271-3311,MAGDA R. PEREIRA,MIAMI KILLIAN SHS,h
252,252,252.0,"5780 NW 158 STREET MIAMI LAKES, FL 33014",25.916981N,25.916981,80.294815W,-80.294815, (305)557-1100,LOURDES DIAZ,MIAMI LAKES EDUCATIONAL CENTER,h
253,253,253.0,"1050 NW 195TH STREET MIAMI GARDENS, FL 33169",25.95303N,25.95303,80.219141W,-80.21914100000001, (305)653-1416,REGINALD E. LEE,MIAMI NORLAND SHS,h
254,254,254.0,"1100 NW 71 STREET MIAMI, FL 33150",25.839513N,25.839513,80.213797W,-80.213797, (305)836-0991,WALLACE ARISTIDE,MIAMI NORTHWESTERN SHS,h
255,255,255.0,"7460 SW 118 STREET PINECREST, FL 33156",25.661158N,25.661158,80.315611W,-80.315611, (305)235-1360,VICTORIA G. DOBBS,MIAMI PALMETTO SHS,h
256,256,256.0,"2450 SW 1ST STREET MIAMI, FL 33135",25.771395N,25.771395000000002,80.235963W,-80.235963, (305)649-9800,BENNY VALDES,MIAMI SHS,h
257,257,257.0,"19355 SW 114TH AVENUE MIAMI, FL 33157",25.586222N,25.586222,80.376708W,-80.376708, (305)238-6110,HUMBERTO J. MIRET,MIAMI SOUTHRIDGE SHS,h
258,258,258.0,"751 DOVE AVENUE MIAMI SPRINGS, FL 33166",25.82985N,25.82985,80.295175W,-80.295175, (305)885-3585,EDWARD R. SMITH,MIAMI SPRINGS SHS,h
259,259,259.0,"13125 SW 72ND STREET MIAMI, FL 33183",25.70031N,25.70031,80.404752W,-80.404752, (305)385-4255,JOHN C. LUX,MIAMI SUNSET SHS,h
260,260,260.0,"1501 NE 2ND AVENUE, #336 MIAMI, FL 33132",31.181605N,31.181604999999998,83.76799W,-83.76799, (305)995-1257,DR. LUDY LOPEZ,MIAMI-DADE ONLINE ACADEMY 7001,h
261,261,261.0,"25 NE 2ND STREET MIAMI, FL 33132",25.776099N,25.776099,80.1932W,-80.1932, (305)237-3135,JASON H. ALLEN,NEW WORLD SCHOOL OF THE ARTS,h
262,262,262.0,"1247 NE 167TH STREET MIAMI, FL 33162",25.929143N,25.929143,80.17518W,-80.17518000000001, (305)949-8381,RANDY A. MILLIKEN,NORTH MIAMI BEACH SHS,h
263,263,263.0,"13110 NE 8 AVENUE NORTH MIAMI, FL 33161",25.896988N,25.896988,80.182697W,-80.18269699999999, (305)891-6590,PATRICK LACOUTY,NORTH MIAMI SHS,h
264,264,264.0,"18180 SW 122 AVENUE MIAMI, FL 33177",25.59914N,25.59914,80.38908W,-80.38908, (305)253-9920,REGINALD J. FOX,ROBERT MORGAN SHS,h
265,265,265.0,"8600 NW 107TH AVENUE DORAL, FL 33178",25.852484N,25.852484,80.370725W,-80.370725, (305)805-1900,JUAN C. BOUE,RONALD W. REAGAN/DORAL SHS,h
266,266,266.0,"11380 NW 27 AVE - ROOM 1111 MIAMI, FL 33167",25.878008N,25.878007999999998,80.242954W,-80.242954, (305)237-1089,DR. OMAR MONTEAGUDO,SCHOOL FOR ADVANCED STUDIES - NORTH,h
267,267,267.0,"11011 SW 104 STREET - ROOM 301 MIAMI, FL 33176",25.672329N,25.672329,80.372088W,-80.372088, (305)237-0510,DR. OMAR MONTEAGUDO,SCHOOL FOR ADVANCED STUDIES - SOUTH,h
268,268,268.0,"3800 NW 115TH AVENUE DORAL, FL 33178",25.807935N,25.807935,80.383833W,-80.383833, (305)237-8540,DR. OMAR MONTEAGUDO,SCHOOL FOR ADVANCED STUDIES - WEST,h
269,269,269.0,"25 NE 2ND STREET, ROOM 5515 MIAMI, FL 33132",25.776099N,25.776099,80.1932W,-80.1932, (305)237-7270,DR. OMAR MONTEAGUDO,SCHOOL FOR ADVANCED STUDIES - WOLFSON,h
270,270,270.0,"500 COLLEGE TERRACE HOMESTEAD, FL 33030",25.473558N,25.473557999999997,80.474138W,-80.474138, (305)237-5062,DR. OMAR MONTEAGUDO,SCHOOL FOR ADVANCED STUDIES HOMESTEAD,h
271,271,271.0,"28401 SW 167TH AVENUE MIAMI, FL 33030",25.503249N,25.503249,80.461301W,-80.461301, (305)247-4244,JUAN C. DE ARMAS,SOUTH DADE SHS,h
272,272,272.0,"6856 SW 53RD STREET MIAMI-DADE, FL 33155",25.721064N,25.721064000000002,80.305713W,-80.305713, (305)666-5871,GILBERTO D. BONCE,SOUTH MIAMI SHS,h
273,273,273.0,"8855 SW 50TH TERRACE MIAMI, FL 33165",25.721583N,25.721583,80.339644W,-80.33964399999999, (305)274-0181,DR. CARLOS RIOS JR,SOUTHWEST MIAMI SHS,h
274,274,274.0,"6300 NW 27TH AVE. ROOM 92 MIAMI, FL 33147",25.833N,25.833000000000002,80.241318W,-80.241318, (305)636-7356,"
",TAP - TEENAGE PARENT PROGRAM,h
275,275,275.0,"11005 SW 84 STREET MIAMI, FL 33173",25.690294N,25.690294,80.370024W,-80.370024, (305)412-5800,JOSE L. SIRVEN,TERRA ENVIRONMENTAL RESEARCH INSTITUTE,h
276,276,276.0,"4000 WEST 18TH AVENUE HIALEAH, FL 33012",25.858018N,25.858017999999998,80.318642W,-80.31864200000001, (305)818-3000,GIOVANNA M. BLANCO,WESTLAND HIALEAH SHS,h
277,277,277.0,"10151 NW 19TH AVENUE MIAMI, FL 33147",25.867088N,25.867088,80.230135W,-80.230135, (305)691-8324,UWEZO B. FRAZIER,WILLIAM H. TURNER TECHNICAL ARTS HIGH SCHOOL,h
278,278,278.0,"3001 NW 2 AVENUE MIAMI, FL 33127",25.805287N,25.805287,80.199238W,-80.199238, (305)571-1111,PIERRE R. EDOUARD,YOUNG MEN'S PREPARATORY ACADEMY,h
279,279,279.0,"1150 SW 1 STREET MIAMI, FL 33130",25.772546N,25.772546,80.213787W,-80.213787, (305)575-1200,CONCEPCION I. MARTINEZ,YOUNG WOMEN'S PREPARATORY ACADEMY,h
280,280,280.0,"660 SW 3 STREET MIAMI, FL 33130",25.770883N,25.770882999999998,80.205125W,-80.205125, (305)326-0791,CARMEN M. GARCIA,ADA MERRITT K-8 CENTER,k
281,281,281.0,"12829 SW 272ND STREET MIAMI, FL 33032",25.514535N,25.514535000000002,80.401265W,-80.40126500000001, (305)258-3676,RAUL CALZADILLA JR,AIR BASE K-8 CENTER FOR INTERNATIONAL EDUCATION,k
282,282,282.0,"21101 NE 26TH AVENUE MIAMI, FL 33180",25.970337N,25.970337,80.14995W,-80.14995, (305)933-5200,YESENIA M. APONTE,AVENTURA WATERWAYS K-8 CENTER,k
283,283,283.0,"13100 NW 12TH AVENUE NORTH MIAMI, FL 33168",25.895085N,25.895085,80.219202W,-80.219202, (305)681-3547,DR. FABRICE LAGUERRE,BENJAMIN FRANKLIN K-8 CENTER,k
284,284,284.0,"15901 NW 79 AVENUE MIAMI LAKES, FL 33016",25.917392N,25.917392,80.329147W,-80.32914699999999, (305)557-3303,YECENIA M. MARTINEZ,BOB GRAHAM EDUCATION CENTER,k
285,285,285.0,"6601 SW 152 AVENUE MIAMI, FL 33193",25.703437N,25.703437,80.441952W,-80.441952, (305)386-6667,LISSET VAZQUEZ-RIOS,BOWMAN ASHE/DOOLIN K-8 ACADEMY,k
286,286,286.0,"15790 SW 307TH STREET MIAMI, FL 33033",25.482043N,25.482043,80.445834W,-80.44583399999999, (305)245-0270,THELMA FORNELL,CAMPBELL DRIVE  K-8 CENTER,k
287,287,287.0,"11990 SW 200 STREET MIAMI, FL 33177",25.58089N,25.58089,80.385865W,-80.385865, (305)233-7131,MARIA E. CALVET-CUBA,CARIBBEAN K-8 CENTER,k
288,288,288.0,"2101 NW 127TH STREET MIAMI, FL 33167",25.890212N,25.890212,80.234355W,-80.23435500000001, (305)688-9641,MARCHEL D. WOODS,CARRIE P. MEEK/WESTVIEW K-8 CENTER,k
289,289,289.0,"1775 NW 60TH STREET MIAMI, FL 33142",25.829887N,25.829887,80.226302W,-80.226302, (305)691-8021,RAYMOND J. SANDS,CHARLES R. DREW K-8 CENTER,k
290,290,290.0,"24400 SW 124 AVE. HOMESTEAD, FL 33032",25.541353N,25.541353,80.392407W,-80.39240699999999, (305)257-0500,DR. CARMEN JONES-CAREY,COCONUT PALM K-8 ACADEMY ,k
291,291,291.0,"105 MINORCA AVENUE CORAL GABLES, FL 33134",25.753856N,25.753856,80.257746W,-80.257746, (305)448-1731,JEANETTE SIERRA-FUNCIA,CORAL GABLES PREPARATORY ACADEMY,k
292,292,292.0,"1950 SW 13TH AVENUE MIAMI, FL 33145",25.753825N,25.753825,80.216326W,-80.216326, (305)854-0515,BARBARA M. MARTIN,CORAL WAY K-8 CENTER,k
293,293,293.0,"5400 SW 112TH COURT MIAMI, FL 33165",25.716715N,25.716715,80.376043W,-80.37604300000001, (305)271-1611,EDUARDO L. ALONSO,CYPRESS K-8 CENTER,k
294,294,294.0,"15000 BAY VISTA BOULEVARD NORTH MIAMI, FL 33181",25.911009N,25.911009,80.144824W,-80.144824, (305)354-2600,MARY PARTON,DAVID LAWRENCE JR. K-8 CENTER,k
295,295,295.0,"10501 SW 122ND AVENUE MIAMI, FL 33186",25.668889N,25.668889,80.391762W,-80.391762, (305)274-7100,BRIAN HAMILTON,DEVON AIRE K-8 CENTER,k
296,296,296.0,"2450 NW 84TH STREET MIAMI, FL 33147",25.850787N,25.850787,80.237857W,-80.23785699999999, (305)691-6491,KIMULA D. OCE,DR. HENRY W. MACK/WEST LITTLE RIVER K-8 CENTER,k
297,297,297.0,"11250 NW 86 STREET DORAL, FL 33178",25.851561N,25.851561,80.380712W,-80.380712, (305)889-5757,MARTHA M. MUNOZ,DR. ROLANDO ESPINOSA K-8 CENTER ,k
298,298,298.0,"8905 NW 114TH AVENUE DORAL, FL 33178",25.840443N,25.840443,80.382309W,-80.38230899999999, (305)863-5750,TRACEY D. CREWS,DR. TONI BILBAO PREPARATORY ACADEMY,k
299,299,299.0,"500 NW 67TH STREET MIAMI, FL 33150",25.836096N,25.836095999999998,80.204785W,-80.204785, (305)758-3658,CARLA PATRICK,EDISON PARK K-8 CENTER,k
300,300,300.0,"7330 WEST 32ND AVENUE HIALEAH, FL 33018",25.8893N,25.8893,80.347954W,-80.347954, (305)825-2122,MAYRA ALFARO,ERNEST R GRAHAM K-8 ACADEMY,k
301,301,301.0,"5950 NW 114 AVENUE DORAL, FL 33178",25.827727N,25.827727,80.382064W,-80.382064, (305)592-7914,DEBBIE F. SAUMELL,EUGENIA B. THOMAS K-8 CENTER,k
302,302,302.0,"8375 SW 16TH STREET MIAMI, FL 33155",25.755068N,25.755067999999998,80.3306W,-80.3306, (305)264-4154,RAMON J. GARRIGO,EVERGLADES K-8 CENTER,k
303,303,303.0,"1420 WASHINGTON AVENUE MIAMI BEACH, FL 33139",25.786137N,25.786137,80.131884W,-80.131884, (305)531-0419,MARIA P. COSTA,FIENBERG/FISHER K-8 CENTER,k
304,304,304.0,"14250 BOGGS DRIVE MIAMI, FL 33176",25.637496N,25.637496,80.374829W,-80.374829, (305)238-3688,FELICIA K. JOSEPH,FRANK C. MARTIN K-8 CENTER,k
305,305,305.0,"955 SE 18 AVENUE HOMESTEAD, FL 33035",25.44964N,25.44964,80.450291W,-80.450291, (305)257-6000,TIFFANY D. ANDERSON,GATEWAY ENVIRONMENTAL K-8 LEARNING CENTER,k
306,306,306.0,"255 NW 115 STREET MIAMI, FL 33168",25.880415N,25.880415,80.20332W,-80.20331999999999, (305)953-3737,MICHAEL J. CHARLOT,HUBERT O. SIBLEY K-8 ACADEMY,k
307,307,307.0,"29035 SW 144TH AVENUE MIAMI, FL 33033",25.496806N,25.496806,80.424647W,-80.424647, (305)242-8340,MADELYN SIERRA-HERNANDEZ,IRVING & BEATRICE PESKOE K-8 CENTER,k
308,308,308.0,"14850 COTTONWOOD CIRCLE MIAMI, FL 33185",25.715744N,25.715744,80.433199W,-80.433199, (305)220-8254,MILAGRO ARANGO,JANE S. ROBERTS K-8 CENTER,k
309,309,309.0,"10415 NW 52ND STREET DORAL, FL 33178",25.820162N,25.820162,80.364997W,-80.364997, (305)406-0220,GENARO NAVARRO,JOHN I. SMITH K-8 CENTER,k
310,310,310.0,"9325 SW 169TH PLACE MIAMI, FL 33196",25.678652N,25.678652,80.467487W,-80.467487, (305)382-6830,CARMEN B. FUENTES,KENDALL SQUARE K-8 CENTER,k
311,311,311.0,"9300 SW 79TH AVENUE MIAMI, FL 33156",25.68516N,25.68516,80.323343W,-80.32334300000001, (305)271-5061,RODOLFO RODRIGUEZ,KENWOOD K-8 CENTER,k
312,312,312.0,"150 WEST MCINTYRE STREET KEY BISCAYNE, FL 33149",25.691174N,25.691174,80.166768W,-80.166768, (305)361-5418,SILVIA TARAFA,KEY BISCAYNE K-8 CENTER,k
313,313,313.0,"10343 SW 124TH STREET MIAMI, FL 33176",25.654069N,25.654069,80.362047W,-80.362047, (305)233-7430,BART D. CHRISTIE,LEEWOOD K-8 CENTER,k
314,314,314.0,"14950 SW 288TH STREET MIAMI, FL 33033",25.499407N,25.499407,80.433813W,-80.433813, (305)247-5431,KENNETH L. WILLIAMS,LEISURE CITY K-8 CENTER,k
315,315,315.0,"1895 NW 75TH STREET MIAMI, FL 33147",25.843189N,25.843189000000002,80.229095W,-80.229095, (305)691-4973,DR. BRIDGETTE A. TATE-WYCHE,LILLIE C. EVANS K-8 CENTER,k
316,316,316.0,"14312 NE 2ND COURT MIAMI, FL 33161",25.906524N,25.906523999999997,80.193806W,-80.19380600000001, (305)891-4011,MONEFE M. YOUNG,LINDA LENTIN K-8 CENTER,k
317,317,317.0,"6020 WEST 16TH AVENUE HIALEAH, FL 33012",25.878535N,25.878535,80.315332W,-80.315332, (305)822-0301,ANNA M. HERNANDEZ,M.A. MILAM K-8 CENTER,k
318,318,318.0,"20770 NE 14TH AVENUE MIAMI, FL 33179",25.966518N,25.966518,80.174336W,-80.174336, (305)651-3155,DEBORAH P. JOHNSON-BRINSON,MADIE IVES K-8 PREPARATORY ACADEMY,k
319,319,319.0,"12225 SW 280 ST MIAMI, FL 33032",25.507198N,25.507198000000002,80.389808W,-80.389808, (305)257-0377,CADIAN COLLMAN,MANDARIN LAKES K-8 ACADEMY,k
320,320,320.0,"14250 NW 67TH AVENUE MIAMI LAKES, FL 33014",25.903079N,25.903079,80.308424W,-80.308424, (305)822-7757,YANELYS CANALES,MIAMI LAKES K-8 CENTER,k
321,321,321.0,"6620 NE 5 AVENUE MIAMI, FL 33138",25.836633N,25.836633,80.186344W,-80.18634399999999, (305)758-6741,JORDANA C. SCHNEIDER,MORNINGSIDE K-8 ACADEMY,k
322,322,322.0,"3125 NW 176TH STREET MIAMI GARDENS, FL 33056",25.934164N,25.934164000000003,80.251229W,-80.25122900000001, (305)624-8431,DR. APRYLE L. KIRNES,MYRTLE GROVE K-8 CENTER,k
323,323,323.0,"201 182 DRIVE SUNNY ISLES BEACH, FL 33160",25.939491N,25.939491,80.136215W,-80.136215, (305)933-6161,DR. ADAM L. KOSNITZKY,NORMAN S. EDELCUP/SUNNY ISLES BEACH K-8,k
324,324,324.0,"3250 NW 207TH STREET MIAMI GARDENS, FL 33056",25.964253N,25.964253,80.255171W,-80.25517099999999, (305)624-9648,MELISSA M. MESA,NORTH COUNTY K-8 CENTER,k
325,325,325.0,"505 NW 20 STREET MIAMI, FL 33127",25.795386N,25.795385999999997,80.203338W,-80.203338, (305)573-2344,MARIA D. DEARMAS,PAUL LAURENCE DUNBAR K-8 CENTER,k
326,326,326.0,"1155 93 STREET BAY HARBOR ISLANDS, FL 33154",25.883752N,25.883751999999998,80.132184W,-80.132184, (305)865-7912,SCOTT H. SAPERSTEIN,RUTH K BROAD/BAY HARBOR K-8 CENTER,k
327,327,327.0,"6800 SW 60TH STREET SOUTH MIAMI, FL 33143",25.714539N,25.714539000000002,80.305565W,-80.305565, (305)667-8847,LOURDES A. LOPEZ,SOUTH MIAMI K-8 CENTER,k
328,328,328.0,"28205 SW 125TH AVENUE, BUILDING F, ROOM F014 HOMESTEAD, FL 33033",25.50573N,25.50573,80.39129W,-80.39129, (305)258-4115,"
",TITLE I MIGRANT EDUCATION PROGRAM,k
329,329,329.0,"8455 SW 119TH STREET MIAMI, FL 33156",25.659842N,25.659842,80.331648W,-80.331648, (305)238-7931,CATHERINE T. KRTAUSCH,VINELAND K-8 CENTER,k
330,330,330.0,"1550 SW 6TH STREET HOMESTEAD, FL 33030",25.464238N,25.464238,80.495582W,-80.495582, (305)248-0812,DR. EARL BURTH,WEST HOMESTEAD K-8 CENTER,k
331,331,331.0,"13835 NW 97TH AVENUE HIALEAH, FL 33018",25.899753N,25.899753,80.356443W,-80.356443, (305)826-6104,RICHELLE P. THOMAS,WEST LAKES PREPARATORY ACADEMY,k
332,332,332.0,"13200 SW 79TH STREET MIAMI, FL 33183",25.695781N,25.695781,80.407061W,-80.407061, (305)386-7622,RAQUEL PELLETIER,WINSTON PARK K-8 CENTER,k
333,1722310030900,,640 NE 114th St Biscayne Park 33161,,25.88021,,-80.18496,305-893-7490,Cornelius McKenna,Biscayne Park Municipal Police Station,p
334,2332090140200,,1841 Galleon Street North Bay Village 33141,,25.84561,,-80.14778000000001,305-758-2626,Carlos Noriega,North Bay Village Municipal Police Station,p
335,2332090100280,,1666 Kennedy Cswy North Bay Village 33141,,25.84812,,-80.15105,305-756-7171,Maurice Murray,North Bay Village Municipal CE Police Station,p
336,3421030130010,,18611 NW 27th Ave Miami Gardens 33056,,25.9439,,-80.24413,305-474-6473,Chief Antonio G. Brooklen,Miami Gardens (HQ) Municipal Police Station,p
337,341170055110,,2801 Salzedo St Coral Gables 33134,,25.745910000000002,,-80.25997,305-442-1600,"Edward J. Hudak, Jr.",Coral Gables Municipal Police Station,p
338,1832070490490,,500 NE 87th St El Portal 33138,,25.8548,,-80.18771,305-795-7870,Eugene M. Morales,El Portal Municipal Police Station,p
339,421320010011,,5555 E 8th Ave Hialeah 33013,,25.87298,,-80.26629,305-687-2525,Sergio Velazquez,Hialeah Municipal Police Station Headquarters,p
340,420270010340,,7400 W 24th Ave Hialeah 33016,,25.8901,,-80.33245,305-698-3600,Sergio Velasquez,Hialeah (Substation 5),p
341,1079220010171,,45 NW 1st Ave Homestead 33030,,25.470570000000002,,-80.47921,305-247-1535,Alexander E. Rolle,Homestead Municipal Police Station,p
342,2122350020030,,9080 Bay Dr Indian Creek Village 33154,,25.87752,,-80.12977,305-865-4121,Clarke P. Maher,Indian Creek Village Municipal Police Station,p
343,2442320010061,,88 West McIntyre Street Key Biscayne 33149,,25.69079,,-80.16492,305-365-5555,Charles R. Press,Key Biscayne Municipal Police Station,p
344,2230110021251,,7777 NW 72nd Ave Medley 33166,,25.84457,,-80.31336,305-883-2047,Jeanette Said-Jinete,Medley Municipal Police Station,p
345,101070501090,,400 NW 2nd Ave Miami 33128,,25.77833,,-80.19856999999999,305-579-6540,Rodolfo Llanes,Miami (Headquarters) Municipal Police Station,p
346,131140120880,,1000 NW 62nd St Miami 33150,,25.831870000000002,,-80.21327,305-795-2300,Miguel Exposito,Miami (Model City NET Service Area),p
347,101070501090,,400 NW 2nd Ave Miami 33128,,25.77812,,-80.19832,305-603-6640,Major Ervens Ford,Miami (Overtown NET Service Area) ,p
348,242030090370,,1100 Washington Ave Miami Beach 33139,,25.78225,,-80.1332,305-673-7925,Daniel J. Oates,Miami Beach Municipal Police Station,p
349,232110010760,,6840 Indian Creek Dr Miami Beach 33140,,25.85364,,-80.12386,305-993-2060,Raymond A. Martinez,Miami Beach Municipal Police Station (North Dist),p
350,530240061390,,201 Westward Dr Miami Springs 33166,,25.82141,,-80.28468000000001,305-805-5100,Armando Guzman,Miami Springs Municipal Police Station,p
351,2332090511420,,1700 Kennedy Cswy North Bay Village 33141,,25.8481,,-80.14998,305-758-2626,Carlos Noriega,North Bay Village Municipal Police Station,p
352,722090062960,,16901 NE 19th Ave North Miami Beach 33162,,25.93143,,-80.16178000000001,305-948-2995,William Hernandez,North Miami Beach Municipal Police Station,p
353,821220020460,,2495 Ali Baba Ave Opa-Locka 33054,,25.90645,,-80.24189,305-681-1033,James Dobson,Opa-Locka Municipal Police Station,p
354,821220000240,,2040 Opa-Locka Blvd Opa-Locka 33054,,25.897920000000003,,-80.23272,305-681-1033,Cheryl Cason,Opa-Locka Municipal Police (Mini-Station),p
355,940360000030,,6130 Sunset Dr South Miami 33143,,25.70338,,-80.29208,305-663-6301,Rene Landa,South Miami Municipal Police Station,p
356,1422350060490,,9293 Harding Ave Surfside 33154,,25.881339999999998,,-80.12279000000001,305-861-4863,David Allen ,Surfside Municipal Police Station,p
357,2540060010056,,500 SW 109th Ave Sweetwater 33174,,25.76389,,-80.3731,305-552-9900,Placido Diaz,Sweetwater Municipal Police Station,p
358,2630250010300,,6498 NW 38th Ter Virginia Gardens 33166,,25.809479999999997,,-80.30278,305-871-3141,James P. Chohonis,Virginia Gardens Municipal Police Station,p
359,1540120000170,,901 SW 62nd Ave West Miami 33144,,25.7623,,-80.29538000000001,305-266-0530,Nelson Andreu,West Miami Municipal Police Station,p
360,420250010470,,7400 W 10th Ave Hialeah 33014,,25.89002,,-80.30409,305-816-4461,Sergio Velasquez,Hialeah (Substation 4),p
361,131330060900,,1701 NW 30th Ave Miami 33125,,25.79115,,-80.24318000000001,305-603-6500,Miguel Exposito,Miami (Grapeland Heights Substation),p
362,430120140020,,2700 W 8th Ave Hialeah 33012,,25.846420000000002,,-80.29853,305-883-5305,Sergio Velasquez,Hialeah (Substation 3),p
363,101070501090,,400 NW 2nd Ave Miami 33128,,25.77805,,-80.19821,305-603-6640,Major Jose Perez,Miami (Wynwood/Edgewater NET Service Area),p
364,131140120880,,1000 NW 62nd St Miami 33150,,25.83176,,-80.21288,305-603-6640,Miguel Exposito,Miami (Upper East Side NET Service Area),p
365,101070501090,,400 NW 2nd Ave Miami 33128,,25.77799,,-80.19808,305-603-6640,Miguel Exposito,Miami (Downtown NET Service Area),p
366,622300190010,,700 NE 124th St North Miami 33161,,25.88918,,-80.18386,305-891-0294,Gary Eugene,North Miami Municipal Police Station,p
367,1678240071890,,404 W Palm Dr Florida City 33034,,25.44858,,-80.48288000000001,305-247-8223,Pedro W. Taylor,Florida City Municipal Police Station,p
368,3530280110010,,9101 NW 25th St Doral 33172,,25.798370000000002,,-80.34387,305-471-2800,James Loftus,Mid West Municipal Police Station (Doral),p
369,2812350790010,,19200 W Country Club Dr Aventura 33180,,25.95291,,-80.13906,305-466-8966,Steve Steinberg,Aventura Municipal Police Station,p
370,1132060132080,,9990 NE 2nd Ave Miami Shores 33138,,25.86681,,-80.19381,305-759-2468,Kevin Lystad,Miami Shores Municipal Police Station,p
371,101070501090,,400 NW 2nd Ave Miami 33128,,25.77819,,-80.19838,305-603-6640,Major Jose Perez,Miami (Flagami NET Service Area),p
372,1912350041270,,1 Golden Beach Drive Golden Beach 33160,,25.95733,,-80.12138,305-936-2444,Rudy Herbello,Golden  Beach Municipal Police Station,p
373,3350320043120,,9705 E Hibiscus St Palmetto Bay 33157,,25.60416,,-80.3493,305-278-4000,"Gady Serralta, Major",Palmetto Bay Municipal Police Station,p
374,530240071560,,274 Westward Dr Miami Springs 33166,,25.820729999999998,,-80.28533,305-888-5286,G. Baan,Miami Springs Municipal Police (Substation),p
375,3122110050010,,18070 Collins Ave Sunny Isles Beach 33160,,25.94267,,-80.12236999999999,305-947-4440,Fred Maas,Sunny Isles Beach Municipal Police Station,p
376,3530170320010,,6100 NW 99th Ave Doral 33178,,25.82917,,-80.35866,305-593-6699,Donald W. De Lucca,Doral Municipal Police Station,p
377,141030360030,,2200 W Flagler St Miami 33135,,25.77226,,-80.23158000000001,305-643-7160,Miguel Exposito,Miami (Little Havana NET Service Area),p
378,431170000060,,501 E 4th Ave Hialeah 33010,,25.82689,,-80.27316,305-883-5981,Sergio Velasquez,Hialeah (Substation 1),p
379,3220130010432,,6601 Main St Miami Lakes 33014,,25.9131,,-80.30741,305-364-6100,George A. Perez,Miami Lakes Municipal Police Station,p
380,2730030010410,,10301 NW 87th Ave Hialeah Gardens 33016,,25.86894,,-80.33849000000001,305-558-3333,Manuel Zardon,Hialeah Gardens Municipal Police Station,p
381,101070501090,,400 NW 2nd Ave Miami 33128,,25.77825,,-80.19846,305-603-6640,Major Esther Farmer,Miami (Allapattah NET Service Area),p
382,2050150350010,,12645 Pinecrest Parkway Pinecrest 33157,,25.65297,,-80.32864000000001,305-234-2100 ,"Samuel Ceballos, Jr",Pinecrest Municipal Police Station,p
383,3660070240020,,10720 Caribbean Blvd Cutler Bay 33189,,25.57627,,-80.36572,305-234-4237,Julie Miller,Cutler Bay Municipal Police Station,p
384,3045200000010,,"Mile Marker 70, US Hwy 41 Miami-Dade 33194",,25.76049,,-80.79749,305-223-1600,Tom Loughren,Miccosukee Municipal Police Station Main,p
385,3048010000022,,550 SW 177th Ave Miami-Dade 33194,,25.762929999999997,,-80.4846,305-223-1600,Tom Loughren,Miccosukee Municipal Police Substation,p
386,141030360030,,2200 W Flagler St Miami 33135,,25.77231,,-80.23181,305-643-7160,Miguel Exposito,Miami (South Station) Municipal Police Station,p
387,131140120880,,1000 NW 62nd St Miami 33150,,25.83192,,-80.21341,305-795-2300 ,Miguel Exposito,Miami (North Station)  ,p
388,141030360030,,2200 W Flagler St Miami 33135,,25.77219,,-80.23158000000001,305-643-7160,Major Jose Perez,Miami (South NET Service Area) Municipal Police,p
389,131140120880,,1000 NW 62nd St Miami 33150,,25.83181,,-80.21307,305-759-2337,Miguel Exposito,Miami (Little Haiti NET Service Area),p
390,1222260060040,,655 96TH ST Bay Harbor Islands 33154,,25.88719,,-80.12678000000001,305-866-5000,Mark Nathan Overton,Bal Harbour Municipal Police Station,p
391,1322270012220,,9665 Bay Harbor Terr Bay Harbor Islands 33154,,25.887420000000002,,-80.1311,305-866-6242,Sean Hemingway,Bay Harbor Islands Municipal Police Station,p
